NORAD_CAT_ID,OBJECT_NAME,OBJECT_TYPE,EPOCH,MEAN_MOTION,ECCENTRICITY,INCLINATION,RA_OF_ASC_NODE,ARG_OF_PERICENTER,MEAN_ANOMALY,BSTAR,MEAN_MOTION_DOT,MEAN_MOTION_DDOT,TLE_LINE0,TLE_LINE1,TLE_LINE2,SEMIMAJOR_AXIS,PERIOD,APOGEE,PERIGEE,DECAYED
51878.0,STARLINK-3575,PAYLOAD,2023-07-15 16:47:39,15.08826948,0.0001003,53.2189,34.5927,108.7765,251.3336,-6.5227e-05,-1.325e-05,0.0,0 STARLINK-3575,1 51878U 22022AC  23196.69976287 -.00001325  00000-0 -65227-4 0  9991,2 51878  53.2189  34.5927 0001003 108.7765 251.3336 15.08826948 76981,6917.92,95.438,540.479,539.091,0.0
51878.0,STARLINK-3575,PAYLOAD,2023-07-16 16:38:26,15.08840763,9.45e-05,53.2175,30.1334,99.8469,260.263,-0.00017884,-3.133e-05,0.0,0 STARLINK-3575,1 51878U 22022AC  23197.69336209 -.00003133  00000-0 -17884-3 0  9990,2 51878  53.2175  30.1334 0000945  99.8469 260.2630 15.08840763 77130,6917.878,95.438,540.397,539.089,0.0
51878.0,STARLINK-3575,PAYLOAD,2023-07-17 19:39:59,15.08837653,0.0001026,53.2185,25.0798,111.8799,248.2302,0.00030094,4.505e-05,0.0,0 STARLINK-3575,1 51878U 22022AC  23198.81943871  .00004505  00000-0  30094-3 0  9994,2 51878  53.2185  25.0798 0001026 111.8799 248.2302 15.08837653 77305,6917.888,95.438,540.462,539.043,0.0
51878.0,STARLINK-3575,PAYLOAD,2023-07-18 11:33:51,15.08834061,0.000105,53.2181,22.1065,99.6664,260.4447,0.00025032,3.698e-05,0.0,0 STARLINK-3575,1 51878U 22022AC  23199.48184740  .00003698  00000-0  25032-3 0  9998,2 51878  53.2181  22.1065 0001050  99.6664 260.4447 15.08834061 77404,6917.899,95.438,540.49,539.037,0.0
51878.0,STARLINK-3575,PAYLOAD,2023-07-19 11:24:39,15.08832522,8.16e-05,53.2192,17.6455,94.1939,265.9147,3.8309e-05,3.22e-06,0.0,0 STARLINK-3575,1 51878U 22022AC  23200.47545398  .00000322  00000-0  38309-4 0  9993,2 51878  53.2192  17.6455 0000816  94.1939 265.9147 15.08832522 77555,6917.903,95.438,540.333,539.204,0.0
51878.0,STARLINK-3575,PAYLOAD,2023-07-20 20:47:43,15.08850648,9.37e-05,53.2184,11.4004,96.4796,263.6303,0.00017902,2.563e-05,0.0,0 STARLINK-3575,1 51878U 22022AC  23201.86647948  .00002563  00000-0  17902-3 0  9995,2 51878  53.2184  11.4004 0000937  96.4796 263.6303 15.08850648 77769,6917.848,95.437,540.361,539.065,0.0
51878.0,STARLINK-3575,PAYLOAD,2023-07-21 11:06:12,15.08841103,6.87e-05,53.2178,8.7234,102.3649,257.742,0.0001168,1.572e-05,0.0,0 STARLINK-3575,1 51878U 22022AC  23202.46264683  .00001572  00000-0  11680-3 0  9999,2 51878  53.2178   8.7234 0000687 102.3649 257.7420 15.08841103 77852,6917.877,95.437,540.217,539.267,0.0
51878.0,STARLINK-3575,PAYLOAD,2023-07-24 10:38:34,15.08838557,8.13e-05,53.2187,355.3421,77.6677,282.4407,7.8171e-05,9.57e-06,0.0,0 STARLINK-3575,1 51878U 22022AC  23205.44345040  .00000957  00000-0  78171-4 0  9992,2 51878  53.2187 355.3421 0000813  77.6677 282.4407 15.08838557 78307,6917.885,95.438,540.312,539.187,0.0
51878.0,STARLINK-3575,PAYLOAD,2023-07-25 10:29:21,15.08783977,3.41e-05,53.2231,350.8841,46.2053,313.8968,0.00076048,0.00011818,0.0,0 STARLINK-3575,1 51878U 22022AC  23206.43705043  .00011818  00000-0  76048-3 0  9993,2 51878  53.2231 350.8841 0000341  46.2053 313.8968 15.08783977 78451,6918.052,95.441,540.153,539.681,0.0
51878.0,STARLINK-3575,PAYLOAD,2023-07-26 10:20:08,15.08839827,8.47e-05,53.2168,346.421,89.4097,270.6992,5.5787e-05,6e-06,0.0,0 STARLINK-3575,1 51878U 22022AC  23207.43065249  .00000600  00000-0  55787-4 0  9996,2 51878  53.2168 346.4210 0000847  89.4097 270.6992 15.08839827 78609,6917.881,95.438,540.332,539.16,0.0
51878.0,STARLINK-3575,PAYLOAD,2023-07-27 02:13:59,15.08846214,7.5e-05,53.2172,343.4474,89.5859,270.5219,0.0001463,2.042e-05,0.0,0 STARLINK-3575,1 51878U 22022AC  23208.09304436  .00002042  00000-0  14630-3 0  9996,2 51878  53.2172 343.4474 0000750  89.5859 270.5219 15.08846214 78703,6917.861,95.437,540.245,539.208,0.0
51878.0,STARLINK-3575,PAYLOAD,2023-07-27 08:35:32,15.08831923,0.0001187,53.2204,342.2605,95.1621,264.9507,0.00011398,1.526e-05,0.0,0 STARLINK-3575,1 51878U 22022AC  23208.35801480  .00001526  00000-0  11398-3 0  9990,2 51878  53.2204 342.2605 0001187  95.1621 264.9507 15.08831923 78749,6917.905,95.438,540.591,538.949,0.0
51878.0,STARLINK-3575,PAYLOAD,2023-07-28 08:26:19,15.08834465,8.86e-05,53.2188,337.8007,75.4423,284.6667,4.2437e-05,3.88e-06,0.0,0 STARLINK-3575,1 51878U 22022AC  23209.35161706  .00000388  00000-0  42437-4 0  9995,2 51878  53.2188 337.8007 0000886  75.4423 284.6667 15.08834465 78898,6917.897,95.438,540.375,539.149,0.0
51878.0,STARLINK-3575,PAYLOAD,2023-07-28 14:47:52,15.08839369,7.86e-05,53.2166,336.6091,59.8841,300.2229,3.3542e-05,2.46e-06,0.0,0 STARLINK-3575,1 51878U 22022AC  23209.61657490  .00000246  00000-0  33542-4 0  9994,2 51878  53.2166 336.6091 0000786  59.8841 300.2229 15.08839369 78935,6917.882,95.438,540.291,539.204,0.0
51878.0,STARLINK-3575,PAYLOAD,2023-07-30 11:18:39,15.08840148,7.6e-05,53.2176,328.2821,90.4337,269.6742,4.9736e-05,5.04e-06,0.0,0 STARLINK-3575,1 51878U 22022AC  23211.47129496  .00000504  00000-0  49736-4 0  9990,2 51878  53.2176 328.2821 0000760  90.4337 269.6742 15.08840148 79214,6917.88,95.438,540.271,539.219,0.0
51878.0,STARLINK-3575,PAYLOAD,2023-07-31 17:30:58,15.08851681,7.44e-05,53.2182,322.6334,90.7335,269.3743,0.0001112,1.483e-05,0.0,0 STARLINK-3575,1 51878U 22022AC  23212.72984502  .00001483  00000-0  11120-3 0  9998,2 51878  53.2182 322.6334 0000744  90.7335 269.3743 15.08851681 79404,6917.845,95.437,540.224,539.195,0.0
51878.0,STARLINK-3575,PAYLOAD,2023-08-01 12:35:37,15.08836204,8.98e-05,53.2184,319.066,94.3789,265.7305,4.0216e-05,3.52e-06,0.0,0 STARLINK-3575,1 51878U 22022AC  23213.52473802  .00000352  00000-0  40216-4 0  9996,2 51878  53.2184 319.0660 0000898  94.3789 265.7305 15.08836204 79522,6917.892,95.438,540.378,539.136,0.0
51878.0,STARLINK-3575,PAYLOAD,2023-08-02 14:01:47,15.0884529,8.51e-05,53.2184,314.3084,97.5605,262.5484,4.1952e-05,3.8e-06,0.0,0 STARLINK-3575,1 51878U 22022AC  23214.58457445  .00000380  00000-0  41952-4 0  9997,2 51878  53.2184 314.3084 0000851  97.5605 262.5484 15.08845290 79686,6917.864,95.437,540.318,539.141,0.0
51878.0,STARLINK-3575,PAYLOAD,2023-08-03 13:52:34,15.08838567,9.4e-05,53.2178,309.8474,96.9604,263.1495,0.00027808,4.14e-05,0.0,0 STARLINK-3575,1 51878U 22022AC  23215.57817525  .00004140  00000-0  27808-3 0  9997,2 51878  53.2178 309.8474 0000940  96.9604 263.1495 15.08838567 79837,6917.885,95.438,540.4,539.099,0.0
51878.0,STARLINK-3575,PAYLOAD,2023-08-04 10:32:36,15.08835135,8.92e-05,53.2182,305.9821,84.2328,275.8766,-1.5014e-06,-3.12e-06,0.0,0 STARLINK-3575,1 51878U 22022AC  23216.43930725 -.00000312  00000-0 -15014-5 0  9998,2 51878  53.2182 305.9821 0000892  84.2328 275.8766 15.08835135 79967,6917.895,95.438,540.377,539.143,0.0
51878.0,STARLINK-3575,PAYLOAD,2023-08-05 10:23:21,15.08851157,7.94e-05,53.2169,301.5198,103.7329,256.3751,0.00012849,1.758e-05,0.0,0 STARLINK-3575,1 51878U 22022AC  23217.43289242  .00001758  00000-0  12849-3 0  9994,2 51878  53.2169 301.5198 0000794 103.7329 256.3751 15.08851157 80119,6917.846,95.437,540.261,539.162,0.0
51878.0,STARLINK-3575,PAYLOAD,2023-08-05 23:06:27,15.08847647,0.0001067,53.217,299.1367,121.0163,239.0934,0.00023815,3.505e-05,0.0,0 STARLINK-3575,1 51878U 22022AC  23217.96281462  .00003505  00000-0  23815-3 0  9995,2 51878  53.2170 299.1367 0001067 121.0163 239.0934 15.08847647 80192,6917.857,95.437,540.46,538.984,0.0
51878.0,STARLINK-3575,PAYLOAD,2023-08-06 10:14:09,15.08837937,0.0001452,53.2159,297.0566,133.7054,226.4059,4.7278e-05,4.65e-06,0.0,0 STARLINK-3575,1 51878U 22022AC  23218.42650077  .00000465  00000-0  47278-4 0  9991,2 51878  53.2159 297.0566 0001452 133.7054 226.4059 15.08837937 80261,6917.887,95.438,540.756,538.747,0.0
51878.0,STARLINK-3575,PAYLOAD,2023-08-07 11:40:19,15.08845209,0.0001115,53.2162,292.303,91.243,268.869,-8.2471e-07,-3.01e-06,0.0,0 STARLINK-3575,1 51878U 22022AC  23219.48634157 -.00000301  00000-0 -82471-6 0  9996,2 51878  53.2162 292.3030 0001115  91.2430 268.8690 15.08845209 80421,6917.864,95.437,540.501,538.958,0.0
51878.0,STARLINK-3575,PAYLOAD,2023-08-08 11:31:07,15.08843669,0.0001088,53.216,287.8434,92.8054,267.3063,0.00029899,4.474e-05,0.0,0 STARLINK-3575,1 51878U 22022AC  23220.47994543  .00004474  00000-0  29899-3 0  9990,2 51878  53.2160 287.8434 0001088  92.8054 267.3063 15.08843669 80576,6917.869,95.437,540.487,538.982,0.0
51878.0,STARLINK-3575,PAYLOAD,2023-08-09 03:24:59,15.08831607,0.0001044,53.2164,284.8708,92.7152,267.3959,0.00031439,4.718e-05,0.0,0 STARLINK-3575,1 51878U 22022AC  23221.14235381  .00004718  00000-0  31439-3 0  9997,2 51878  53.2164 284.8708 0001044  92.7152 267.3959 15.08831607 80675,6917.906,95.438,540.493,539.049,0.0
51878.0,STARLINK-3575,PAYLOAD,2023-08-10 09:37:18,15.08841853,0.00011,53.2166,279.2202,86.2368,273.875,7.0154e-05,8.29e-06,0.0,0 STARLINK-3575,1 51878U 22022AC  23222.40091006  .00000829  00000-0  70154-4 0  9998,2 51878  53.2166 279.2202 0001100  86.2368 273.8750 15.08841853 80860,6917.875,95.437,540.501,538.979,0.0
51878.0,STARLINK-3575,PAYLOAD,2023-08-11 11:03:28,15.08842166,0.0001086,53.2164,274.4617,89.9232,270.1885,0.00013113,1.8e-05,0.0,0 STARLINK-3575,1 51878U 22022AC  23223.46074890  .00001800  00000-0  13113-3 0  9998,2 51878  53.2164 274.4617 0001086  89.9232 270.1885 15.08842166 81024,6917.874,95.437,540.49,538.987,0.0
51878.0,STARLINK-3575,PAYLOAD,2023-08-12 02:57:20,15.08833004,0.0001047,53.2161,271.4866,81.1607,278.9504,3.3267e-05,2.42e-06,0.0,0 STARLINK-3575,1 51878U 22022AC  23224.12315811  .00000242  00000-0  33267-4 0  9995,2 51878  53.2161 271.4866 0001047  81.1607 278.9504 15.08833004 81127,6917.902,95.438,540.491,539.042,0.0
51878.0,STARLINK-3575,PAYLOAD,2023-08-12 09:18:52,15.08841026,0.0001064,53.2156,270.2967,90.61,269.5014,4.0517e-05,3.57e-06,0.0,0 STARLINK-3575,1 51878U 22022AC  23224.38811275  .00000357  00000-0  40517-4 0  9991,2 51878  53.2156 270.2967 0001064  90.6100 269.5014 15.08841026 81161,6917.877,95.437,540.478,539.006,0.0
